{"type": "FeatureCollection", "features": [ {"type": "Feature", "properties": {"norad_id": 40697, "name": "SENTINEL-2A", "group": "resource", "lat": 6.851090701484437, "lon": -128.92168186670085, "alt_km": 790.8529175609319, "timestamp": "2025-12-03T08:58:45.656338+00:00", "meta": {"OBJECT_NAME": "SENTINEL-2A", "OBJECT_ID": "2015-028A", "EPOCH": "2025-12-03T04:49:01.412256", "MEAN_MOTION": 14.30821023, "ECCENTRICITY": 0.0001038, "INCLINATION": 98.5703, "RA_OF_ASC_NODE": 49.8692, "ARG_OF_PERICENTER": 93.6913, "MEAN_ANOMALY": 266.4388, "EPHEMERIS_TYPE": 0, "CLASSIFICATION_TYPE": "U", "NORAD_CAT_ID": 40697, "ELEMENT_SET_NO": 999, "REV_AT_EPOCH": 54570, "BSTAR": 0.00010182, "MEAN_MOTION_DOT": 2.23e-06, "MEAN_MOTION_DDOT": 0}, "tle": {"line1": "1 40697U 15028A   25337.20071079  .00000223  00000+0  10182-3 0  9999", "line2": "2 40697  98.5703  49.8692 0001038  93.6913 266.4388 14.30821023545703"}}, "geometry": {"type": "Point", "coordinates": [-128.92168186670085, 6.851090701484437]}}, {"type": "Feature", "properties": {"norad_id": 40701, "name": "GAOFEN-8", "group": "resource", "lat": -21.46524844800696, "lon": -27.984481294269848, "alt_km": 450.70190357187494, "timestamp": "2025-12-03T08:58:45.656349+00:00", "meta": {"OBJECT_NAME": "GAOFEN-8", "OBJECT_ID": "2015-030A", "EPOCH": "2025-12-03T04:58:59.561184", "MEAN_MOTION": 15.38040536, "ECCENTRICITY": 0.0011195, "INCLINATION": 97.6906, "RA_OF_ASC_NODE": 154.887, "ARG_OF_PERICENTER": 171.6218, "MEAN_ANOMALY": 188.5215, "EPHEMERIS_TYPE": 0, "CLASSIFICATION_TYPE": "U", "NORAD_CAT_ID": 40701, "ELEMENT_SET_NO": 999, "REV_AT_EPOCH": 58124, "BSTAR": 0.00066324, "MEAN_MOTION_DOT": 0.00024839, "MEAN_MOTION_DDOT": 0}, "tle": {"line1": "1 40701U 15030A   25337.20763381  .00024839  00000+0  66324-3 0  9990", "line2": "2 40701  97.6906 154.8870 0011195 171.6218 188.5215 15.38040536581242"}}, "geometry": {"type": "Point", "coordinates": [-27.984481294269848, -21.46524844800696]}}, {"type": "Feature", "properties": {"norad_id": 40718, "name": "CARBONITE 1 (CBNT-1)", "group": "resource", "lat": -24.638941030973434, "lon": -24.69894312366062, "alt_km": 616.9408972822321, "timestamp": "2025-12-03T08:58:45.656359+00:00", "meta": {"OBJECT_NAME": "CARBONITE 1 (CBNT-1)", "OBJECT_ID": "2015-032D", "EPOCH": "2025-12-03T04:49:07.519008", "MEAN_MOTION": 14.8266924, "ECCENTRICITY": 0.0013823, "INCLINATION": 97.64, "RA_OF_ASC_NODE": 158.6651, "ARG_OF_PERICENTER": 213.7373, "MEAN_ANOMALY": 146.2962, "EPHEMERIS_TYPE": 0, "CLASSIFICATION_TYPE": "U", "NORAD_CAT_ID": 40718, "ELEMENT_SET_NO": 999, "REV_AT_EPOCH": 56029, "BSTAR": 0.00042872, "MEAN_MOTION_DOT": 3.412e-05, "MEAN_MOTION_DDOT": 0}, "tle": {"line1": "1 40718U 15032D   25337.20078147  .00003412  00000+0  42872-3 0  9995", "line2": "2 40718  97.6400 158.6651 0013823 213.7373 146.2962 14.82669240560297"}}, "geometry": {"type": "Point", "coordinates": [-24.69894312366062, -24.638941030973434]}}, {"type": "Feature", "properties": {"norad_id": 40878, "name": "YAOGAN-27", "group": "resource", "lat": 65.19394424123465, "lon": 170.10108445830778, "alt_km": 1198.9636270710325, "timestamp": "2025-12-03T08:58:45.656370+00:00", "meta": {"OBJECT_NAME": "YAOGAN-27", "OBJECT_ID": "2015-040A", "EPOCH": "2025-12-03T04:45:33.570144", "MEAN_MOTION": 13.16059638, "ECCENTRICITY": 0.0007747, "INCLINATION": 100.1004, "RA_OF_ASC_NODE": 327.2502, "ARG_OF_PERICENTER": 310.2381, "MEAN_ANOMALY": 49.8055, "EPHEMERIS_TYPE": 0, "CLASSIFICATION_TYPE": "U", "NORAD_CAT_ID": 40878, "ELEMENT_SET_NO": 999, "REV_AT_EPOCH": 49188, "BSTAR": 4.4902e-05, "MEAN_MOTION_DOT": -2.5e-07, "MEAN_MOTION_DDOT": 0}, "tle": {"line1": "1 40878U 15040A   25337.19830521 -.00000025  00000+0  44902-4 0  9996", "line2": "2 40878 100.1004 327.2502 0007747 310.2381  49.8055 13.16059638491882"}}, "geometry": {"type": "Point", "coordinates": [170.10108445830778, 65.19394424123465]}}, {"type": "Feature", "properties": {"norad_id": 40894, "name": "GAOFEN-9 01", "group": "resource", "lat": 43.24511639618612, "lon": -155.99814678574674, "alt_km": 612.0710614437548, "timestamp": "2025-12-03T08:58:45.656380+00:00", "meta": {"OBJECT_NAME": "GAOFEN-9 01", "OBJECT_ID": "2015-047A", "EPOCH": "2025-12-03T05:07:47.269056", "MEAN_MOTION": 14.82382245, "ECCENTRICITY": 0.0028941, "INCLINATION": 97.6556, "RA_OF_ASC_NODE": 16.5804, "ARG_OF_PERICENTER": 64.2943, "MEAN_ANOMALY": 296.1254, "EPHEMERIS_TYPE": 0, "CLASSIFICATION_TYPE": "U", "NORAD_CAT_ID": 40894, "ELEMENT_SET_NO": 999, "REV_AT_EPOCH": 55115, "BSTAR": 0.00020706, "MEAN_MOTION_DOT": 1.619e-05, "MEAN_MOTION_DDOT": 0}, "tle": {"line1": "1 40894U 15047A   25337.21374154  .00001619  00000+0  20706-3 0  9993", "line2": "2 40894  97.6556  16.5804 0028941  64.2943 296.1254 14.82382245551156"}}, "geometry": {"type": "Point", "coordinates": [-155.99814678574674, 43.24511639618612]}}, {"type": "Feature", "properties": {"norad_id": 41026, "name": "YAOGAN-28", "group": "resource", "lat": -40.271231572135136, "lon": 121.6501149181557, "alt_km": 507.92474286032393, "timestamp": "2025-12-03T08:58:45.656391+00:00", "meta": {"OBJECT_NAME": "YAOGAN-28", "OBJECT_ID": "2015-064A", "EPOCH": "2025-12-03T04:25:50.503584", "MEAN_MOTION": 15.24088975, "ECCENTRICITY": 0.0011932, "INCLINATION": 97.2798, "RA_OF_ASC_NODE": 115.2487, "ARG_OF_PERICENTER": 157.7021, "MEAN_ANOMALY": 202.4738, "EPHEMERIS_TYPE": 0, "CLASSIFICATION_TYPE": "U", "NORAD_CAT_ID": 41026, "ELEMENT_SET_NO": 999, "REV_AT_EPOCH": 56079, "BSTAR": 0.0004993, "MEAN_MOTION_DOT": 0.00012089, "MEAN_MOTION_DDOT": 0}, "tle": {"line1": "1 41026U 15064A   25337.18461231  .00012089  00000+0  49930-3 0  9992", "line2": "2 41026  97.2798 115.2487 0011932 157.7021 202.4738 15.24088975560796"}}, "geometry": {"type": "Point", "coordinates": [121.6501149181557, -40.271231572135136]}}, {"type": "Feature", "properties": {"norad_id": 41038, "name": "YAOGAN-29", "group": "resource", "lat": 7.3700273564971415, "lon": -0.5299197940264628, "alt_km": 621.7625716409211, "timestamp": "2025-12-03T08:58:45.656406+00:00", "meta": {"OBJECT_NAME": "YAOGAN-29", "OBJECT_ID": "2015-069A", "EPOCH": "2025-12-03T05:42:24.964416", "MEAN_MOTION": 14.82865174, "ECCENTRICITY": 7.74e-05, "INCLINATION": 98.0229, "RA_OF_ASC_NODE": 0.3786, "ARG_OF_PERICENTER": 7.7666, "MEAN_ANOMALY": 352.3559, "EPHEMERIS_TYPE": 0, "CLASSIFICATION_TYPE": "U", "NORAD_CAT_ID": 41038, "ELEMENT_SET_NO": 999, "REV_AT_EPOCH": 54158, "BSTAR": 9.357e-05, "MEAN_MOTION_DOT": 7.04e-06, "MEAN_MOTION_DDOT": 0}, "tle": {"line1": "1 41038U 15069A   25337.23778894  .00000704  00000+0  93570-4 0  9993", "line2": "2 41038  98.0229   0.3786 0000774   7.7666 352.3559 14.82865174541583"}}, "geometry": {"type": "Point", "coordinates": [-0.5299197940264628, 7.3700273564971415]}}, {"type": "Feature", "properties": {"norad_id": 41167, "name": "KENT RIDGE 1", "group": "resource", "lat": -10.140401597672385, "lon": 142.6102288954423, "alt_km": 503.9508453693379, "timestamp": "2025-12-03T08:58:45.656417+00:00", "meta": {"OBJECT_NAME": "KENT RIDGE 1", "OBJECT_ID": "2015-077B", "EPOCH": "2025-12-03T04:51:29.321280", "MEAN_MOTION": 15.21515134, "ECCENTRICITY": 0.0008678, "INCLINATION": 14.9806, "RA_OF_ASC_NODE": 281.9029, "ARG_OF_PERICENTER": 355.7263, "MEAN_ANOMALY": 4.2984, "EPHEMERIS_TYPE": 0, "CLASSIFICATION_TYPE": "U", "NORAD_CAT_ID": 41167, "ELEMENT_SET_NO": 999, "REV_AT_EPOCH": 55118, "BSTAR": 0.00024955, "MEAN_MOTION_DOT": 6.551e-05, "MEAN_MOTION_DDOT": 0}, "tle": {"line1": "1 41167U 15077B   25337.20242270  .00006551  00000+0  24955-3 0  9992", "line2": "2 41167  14.9806 281.9029 0008678 355.7263   4.2984 15.21515134551185"}}, "geometry": {"type": "Point", "coordinates": [142.6102288954423, -10.140401597672385]}}, {"type": "Feature", "properties": {"norad_id": 41194, "name": "GAOFEN-4", "group": "resource", "lat": -0.1153161746198645, "lon": -47.154059722387025, "alt_km": 35795.23861667248, "timestamp": "2025-12-03T08:58:45.656431+00:00", "meta": {"OBJECT_NAME": "GAOFEN-4", "OBJECT_ID": "2015-083A", "EPOCH": "2025-12-03T01:45:38.831040", "MEAN_MOTION": 1.00273809, "ECCENTRICITY": 0.0003747, "INCLINATION": 0.1437, "RA_OF_ASC_NODE": 80.6586, "ARG_OF_PERICENTER": 104.049, "MEAN_ANOMALY": 19.5531, "EPHEMERIS_TYPE": 0, "CLASSIFICATION_TYPE": "U", "NORAD_CAT_ID": 41194, "ELEMENT_SET_NO": 999, "REV_AT_EPOCH": 3656, "BSTAR": 0, "MEAN_MOTION_DOT": -3.16e-06, "MEAN_MOTION_DDOT": 0}, "tle": {"line1": "1 41194U 15083A   25337.07336610 -.00000316  00000+0  00000+0 0  9991", "line2": "2 41194   0.1437  80.6586 0003747 104.0490  19.5531  1.00273809 36562"}}, "geometry": {"type": "Point", "coordinates": [-47.154059722387025, -0.1153161746198645]}}, {"type": "Feature", "properties": {"norad_id": 41240, "name": "JASON-3", "group": "resource", "lat": 63.37456597510965, "lon": -64.98089817046768, "alt_km": 1309.2830423935093, "timestamp": "2025-12-03T08:58:45.656443+00:00", "meta": {"OBJECT_NAME": "JASON-3", "OBJECT_ID": "2016-002A", "EPOCH": "2025-12-03T02:51:33.694272", "MEAN_MOTION": 12.87625986, "ECCENTRICITY": 0.0007144, "INCLINATION": 66.0392, "RA_OF_ASC_NODE": 178.0509, "ARG_OF_PERICENTER": 270.2906, "MEAN_ANOMALY": 89.7294, "EPHEMERIS_TYPE": 0, "CLASSIFICATION_TYPE": "U", "NORAD_CAT_ID": 41240, "ELEMENT_SET_NO": 999, "REV_AT_EPOCH": 46200, "BSTAR": 0.00020374, "MEAN_MOTION_DOT": -1.1e-07, "MEAN_MOTION_DDOT": 0}, "tle": {"line1": "1 41240U 16002A   25337.11913998 -.00000011  00000+0  20374-3 0  9992", "line2": "2 41240  66.0392 178.0509 0007144 270.2906  89.7294 12.87625986462006"}}, "geometry": {"type": "Point", "coordinates": [-64.98089817046768, 63.37456597510965]}}]}